start=new Date('2022-06-22T00:00:00.000Z').valueOf();
sats=[{"TLE_LINE1":"1 47807U 21018W   22172.74713587 -.00000156  00000-0  84260-5 0  9992","CLASSIFICATION_TYPE":"U","FILE":"3499203","LAUNCH_DATE":"2021-03-11","ECCENTRICITY":"0.00019570","OBJECT_ID":"2021-018W","ELEMENT_SET_NO":"999","PERIOD":"95.592","MEAN_MOTION":"15.06396301","TLE_LINE2":"2 47807  53.0528 193.1798 0001957  50.7949 309.3213 15.06396301 72481","EPOCH":"2022-06-21T17:55:52.539168","MEAN_ANOMALY":"309.3213","SEMIMAJOR_AXIS":"6925.360","NORAD_CAT_ID":"47807","RCS_SIZE":"LARGE","OBJECT_TYPE":"PAYLOAD","INCLINATION":"53.0528","RA_OF_ASC_NODE":"193.1798","DECAY_DATE":null,"PERIAPSIS":"545.870","APOAPSIS":"548.580","OBJECT_NAME":"STARLINK-2388","BSTAR":"0.00000842600000","TIME_SYSTEM":"UTC","MEAN_ELEMENT_THEORY":"SGP4","EPHEMERIS_TYPE":"0","COUNTRY_CODE":"US","ARG_OF_PERICENTER":"50.7949","SITE":"AFETR","GP_ID":"206582139","CENTER_NAME":"EARTH","REF_FRAME":"TEME","MEAN_MOTION_DOT":"-0.00000156","REV_AT_EPOCH":"7248","MEAN_MOTION_DDOT":"0.0000000000000"},{"OBJECT_NAME":"STARLINK-2389","BSTAR":"0.00002443900000","PERIAPSIS":"546.198","DECAY_DATE":null,"APOAPSIS":"548.207","TIME_SYSTEM":"UTC","CENTER_NAME":"EARTH","GP_ID":"206547892","MEAN_MOTION_DOT":"0.00000083","REV_AT_EPOCH":"7216","MEAN_MOTION_DDOT":"0.0000000000000","REF_FRAME":"TEME","MEAN_ELEMENT_THEORY":"SGP4","EPHEMERIS_TYPE":"0","SITE":"AFETR","COUNTRY_CODE":"US","ARG_OF_PERICENTER":"59.4051","LAUNCH_DATE":"2021-03-11","FILE":"3498878","OBJECT_ID":"2021-018X","ECCENTRICITY":"0.00014500","TLE_LINE1":"1 47808U 21018X   22172.51077265  .00000083  00000-0  24439-4 0  9993","CLASSIFICATION_TYPE":"U","EPOCH":"2022-06-21T12:15:30.756960","MEAN_ANOMALY":"300.7081","RCS_SIZE":"LARGE","OBJECT_TYPE":"PAYLOAD","RA_OF_ASC_NODE":"219.2429","INCLINATION":"53.0535","NORAD_CAT_ID":"47808","SEMIMAJOR_AXIS":"6925.337","PERIOD":"95.592","ELEMENT_SET_NO":"999","MEAN_MOTION":"15.06403608","TLE_LINE2":"2 47808  53.0535 219.2429 0001450  59.4051 300.7081 15.06403608 72161"},{"BSTAR":"-0.00003396400000","OBJECT_NAME":"STARLINK-2390","PERIAPSIS":"546.096","DECAY_DATE":null,"APOAPSIS":"548.404","TIME_SYSTEM":"UTC","EPHEMERIS_TYPE":"0","MEAN_ELEMENT_THEORY":"SGP4","SITE":"AFETR","ARG_OF_PERICENTER":"63.0856","COUNTRY_CODE":"US","CENTER_NAME":"EARTH","GP_ID":"206580648","MEAN_MOTION_DDOT":"0.0000000000000","MEAN_MOTION_DOT":"-0.00000787","REV_AT_EPOCH":"7210","REF_FRAME":"TEME","TLE_LINE1":"1 47809U 21018Y   22172.58124929 -.00000787  00000-0 -33964-4 0  9997","CLASSIFICATION_TYPE":"U","LAUNCH_DATE":"2021-03-11","FILE":"3499203","OBJECT_ID":"2021-018Y","ECCENTRICITY":"0.00016670","PERIOD":"95.593","ELEMENT_SET_NO":"999","TLE_LINE2":"2 47809  53.0553 223.9105 0001667  63.0856 297.0303 15.06388121 72100","MEAN_MOTION":"15.06388121","MEAN_ANOMALY":"297.0303","EPOCH":"2022-06-21T13:56:59.938656","INCLINATION":"53.0553","RA_OF_ASC_NODE":"223.9105","OBJECT_TYPE":"PAYLOAD","RCS_SIZE":"LARGE","SEMIMAJOR_AXIS":"6925.385","NORAD_CAT_ID":"47809"},{"RA_OF_ASC_NODE":"233.8119","INCLINATION":"53.0529","RCS_SIZE":"LARGE","OBJECT_TYPE":"PAYLOAD","SEMIMAJOR_AXIS":"6925.347","NORAD_CAT_ID":"47810","MEAN_ANOMALY":"287.8968","EPOCH":"2022-06-21T14:34:10.761600","MEAN_MOTION":"15.06400481","TLE_LINE2":"2 47810  53.0529 233.8119 0001562  72.2191 287.8968 15.06400481 71969","PERIOD":"95.592","ELEMENT_SET_NO":"999","OBJECT_ID":"2021-018Z","ECCENTRICITY":"0.00015620","LAUNCH_DATE":"2021-03-11","FILE":"3499203","CLASSIFICATION_TYPE":"U","TLE_LINE1":"1 47810U 21018Z   22172.60706900  .00001270  00000-0  10416-3 0  9999","MEAN_MOTION_DDOT":"0.0000000000000","MEAN_MOTION_DOT":"0.00001270","REV_AT_EPOCH":"7196","REF_FRAME":"TEME","CENTER_NAME":"EARTH","GP_ID":"206581891","SITE":"AFETR","ARG_OF_PERICENTER":"72.2191","COUNTRY_CODE":"US","EPHEMERIS_TYPE":"0","MEAN_ELEMENT_THEORY":"SGP4","TIME_SYSTEM":"UTC","BSTAR":"0.00010416000000","OBJECT_NAME":"STARLINK-2391","DECAY_DATE":null,"APOAPSIS":"548.294","PERIAPSIS":"546.130"},{"TIME_SYSTEM":"UTC","OBJECT_NAME":"STARLINK-2392","BSTAR":"-0.00000736690000","PERIAPSIS":"546.104","DECAY_DATE":null,"APOAPSIS":"548.318","MEAN_MOTION_DOT":"-0.00000391","REV_AT_EPOCH":"7237","MEAN_MOTION_DDOT":"0.0000000000000","REF_FRAME":"TEME","CENTER_NAME":"EARTH","GP_ID":"206548142","SITE":"AFETR","COUNTRY_CODE":"US","ARG_OF_PERICENTER":"70.1888","MEAN_ELEMENT_THEORY":"SGP4","EPHEMERIS_TYPE":"0","ECCENTRICITY":"0.00015980","OBJECT_ID":"2021-018AA","LAUNCH_DATE":"2021-03-11","FILE":"3498878","CLASSIFICATION_TYPE":"U","TLE_LINE1":"1 47811U 21018AA  22172.51399297 -.00000391  00000-0 -73669-5 0  9993","RCS_SIZE":"LARGE","OBJECT_TYPE":"PAYLOAD","RA_OF_ASC_NODE":"204.2225","INCLINATION":"53.0541","NORAD_CAT_ID":"47811","SEMIMAJOR_AXIS":"6925.346","EPOCH":"2022-06-21T12:20:08.992608","MEAN_ANOMALY":"289.9273","MEAN_MOTION":"15.06400783","TLE_LINE2":"2 47811  53.0541 204.2225 0001598  70.1888 289.9273 15.06400783 72376","PERIOD":"95.592","ELEMENT_SET_NO":"999"},{"MEAN_MOTION":"15.06399694","TLE_LINE2":"2 47812  53.0526 233.4628 0001441  54.4038 305.7085 15.06399694 71915","ELEMENT_SET_NO":"999","PERIOD":"95.592","NORAD_CAT_ID":"47812","SEMIMAJOR_AXIS":"6925.349","OBJECT_TYPE":"PAYLOAD","RCS_SIZE":"LARGE","INCLINATION":"53.0526","RA_OF_ASC_NODE":"233.4628","EPOCH":"2022-06-21T16:25:38.129376","MEAN_ANOMALY":"305.7085","CLASSIFICATION_TYPE":"U","TLE_LINE1":"1 47812U 21018AB  22172.68446909  .00000419  00000-0  47045-4 0  9992","ECCENTRICITY":"0.00014410","OBJECT_ID":"2021-018AB","FILE":"3499203","LAUNCH_DATE":"2021-03-11","COUNTRY_CODE":"US","ARG_OF_PERICENTER":"54.4038","SITE":"AFETR","MEAN_ELEMENT_THEORY":"SGP4","EPHEMERIS_TYPE":"0","REF_FRAME":"TEME","MEAN_MOTION_DOT":"0.00000419","REV_AT_EPOCH":"7191","MEAN_MOTION_DDOT":"0.0000000000000","GP_ID":"206580396","CENTER_NAME":"EARTH","TIME_SYSTEM":"UTC","DECAY_DATE":null,"APOAPSIS":"548.212","PERIAPSIS":"546.217","OBJECT_NAME":"STARLINK-2393","BSTAR":"0.00004704500000"},{"TIME_SYSTEM":"UTC","OBJECT_NAME":"STARLINK-2394","BSTAR":"-0.00002278200000","APOAPSIS":"548.212","DECAY_DATE":null,"PERIAPSIS":"546.191","REV_AT_EPOCH":"7241","MEAN_MOTION_DOT":"-0.00000621","MEAN_MOTION_DDOT":"0.0000000000000","REF_FRAME":"TEME","CENTER_NAME":"EARTH","GP_ID":"206581147","SITE":"AFETR","COUNTRY_CODE":"US","ARG_OF_PERICENTER":"59.4526","MEAN_ELEMENT_THEORY":"SGP4","EPHEMERIS_TYPE":"0","OBJECT_ID":"2021-018AC","ECCENTRICITY":"0.00014590","LAUNCH_DATE":"2021-03-11","FILE":"3499203","CLASSIFICATION_TYPE":"U","TLE_LINE1":"1 47813U 21018AC  22172.80150626 -.00000621  00000-0 -22782-4 0  9993","RCS_SIZE":"LARGE","OBJECT_TYPE":"PAYLOAD","RA_OF_ASC_NODE":"202.9332","INCLINATION":"53.0534","NORAD_CAT_ID":"47813","SEMIMAJOR_AXIS":"6925.337","EPOCH":"2022-06-21T19:14:10.140864","MEAN_ANOMALY":"300.6607","TLE_LINE2":"2 47813  53.0534 202.9332 0001459  59.4526 300.6607 15.06403826 72417","MEAN_MOTION":"15.06403826","PERIOD":"95.592","ELEMENT_SET_NO":"999"},{"OBJECT_ID":"2021-018AD","ECCENTRICITY":"0.00019150","FILE":"3499203","LAUNCH_DATE":"2021-03-11","CLASSIFICATION_TYPE":"U","TLE_LINE1":"1 47814U 21018AD  22172.62641609  .00000142  00000-0  28409-4 0  9998","SEMIMAJOR_AXIS":"6925.343","NORAD_CAT_ID":"47814","RCS_SIZE":"MEDIUM","OBJECT_TYPE":"PAYLOAD","RA_OF_ASC_NODE":"223.7216","INCLINATION":"53.0523","EPOCH":"2022-06-21T15:02:02.350176","MEAN_ANOMALY":"311.3141","MEAN_MOTION":"15.06401857","TLE_LINE2":"2 47814  53.0523 223.7216 0001915  48.8012 311.3141 15.06401857 72118","ELEMENT_SET_NO":"999","PERIOD":"95.592","TIME_SYSTEM":"UTC","DECAY_DATE":null,"PERIAPSIS":"545.882","APOAPSIS":"548.534","OBJECT_NAME":"STARLINK-2395","BSTAR":"0.00002840900000","REF_FRAME":"TEME","REV_AT_EPOCH":"7211","MEAN_MOTION_DOT":"0.00000142","MEAN_MOTION_DDOT":"0.0000000000000","GP_ID":"206581392","CENTER_NAME":"EARTH","COUNTRY_CODE":"US","ARG_OF_PERICENTER":"48.8012","SITE":"AFETR","MEAN_ELEMENT_THEORY":"SGP4","EPHEMERIS_TYPE":"0"},{"MEAN_MOTION_DOT":"0.00003084","REV_AT_EPOCH":"7173","MEAN_MOTION_DDOT":"0.0000000000000","REF_FRAME":"TEME","CENTER_NAME":"EARTH","GP_ID":"206556102","SITE":"AFETR","COUNTRY_CODE":"US","ARG_OF_PERICENTER":"54.0730","MEAN_ELEMENT_THEORY":"SGP4","EPHEMERIS_TYPE":"0","TIME_SYSTEM":"UTC","OBJECT_NAME":"STARLINK-2396","BSTAR":"0.00022589000000","DECAY_DATE":null,"PERIAPSIS":"546.025","APOAPSIS":"548.412","OBJECT_TYPE":"PAYLOAD","RCS_SIZE":"LARGE","INCLINATION":"53.0528","RA_OF_ASC_NODE":"220.3580","SEMIMAJOR_AXIS":"6925.353","NORAD_CAT_ID":"47815","EPOCH":"2022-06-21T06:14:35.162880","MEAN_ANOMALY":"306.0419","MEAN_MOTION":"15.06398392","TLE_LINE2":"2 47815  53.0528 220.3580 0001724  54.0730 306.0419 15.06398392 71730","PERIOD":"95.592","ELEMENT_SET_NO":"999","OBJECT_ID":"2021-018AE","ECCENTRICITY":"0.00017240","LAUNCH_DATE":"2021-03-11","FILE":"3499050","CLASSIFICATION_TYPE":"U","TLE_LINE1":"1 47815U 21018AE  22172.26012920  .00003084  00000-0  22589-3 0  9997"},{"CLASSIFICATION_TYPE":"U","TLE_LINE1":"1 47816U 21018AF  22172.53427182  .00002844  00000-0  20970-3 0  9993","OBJECT_ID":"2021-018AF","ECCENTRICITY":"0.00015770","FILE":"3498878","LAUNCH_DATE":"2021-03-11","TLE_LINE2":"2 47816  53.0529 224.1287 0001577  53.4679 306.6455 15.06403167 72036","MEAN_MOTION":"15.06403167","ELEMENT_SET_NO":"999","PERIOD":"95.592","NORAD_CAT_ID":"47816","SEMIMAJOR_AXIS":"6925.339","RA_OF_ASC_NODE":"224.1287","INCLINATION":"53.0529","RCS_SIZE":"LARGE","OBJECT_TYPE":"PAYLOAD","MEAN_ANOMALY":"306.6455","EPOCH":"2022-06-21T12:49:21.085248","TIME_SYSTEM":"UTC","DECAY_DATE":null,"APOAPSIS":"548.296","PERIAPSIS":"546.112","BSTAR":"0.00020970000000","OBJECT_NAME":"STARLINK-2399","ARG_OF_PERICENTER":"53.4679","COUNTRY_CODE":"US","SITE":"AFETR","EPHEMERIS_TYPE":"0","MEAN_ELEMENT_THEORY":"SGP4","REF_FRAME":"TEME","MEAN_MOTION_DDOT":"0.0000000000000","REV_AT_EPOCH":"7203","MEAN_MOTION_DOT":"0.00002844","GP_ID":"206547893","CENTER_NAME":"EARTH"}];
